0 SL-12 DEB
1 19753U 89001E   13282.03940131  .00000032  00000-0  00000+0 0   603
2 19753 064.2419 231.3369 0019455 211.9158 322.2600 02.13160724193106
0 SL-12 DEB
1 19753U 89001E   13289.51531954 -.00000040  00000-0  00000+0 0   624
2 19753 064.2400 231.0789 0019194 211.2147 299.8159 02.13160852193267
0 SL-12 DEB
1 19753U 89001E   13292.36752455 -.00000021  00000-0  00000+0 0   632
2 19753 064.2395 230.9804 0019588 212.0635 327.6935 02.13160929193328
0 SL-12 DEB
1 19753U 89001E   13294.76098503 -.00000002  00000-0  00000+0 0   645
2 19753 064.2389 230.8980 0019372 211.6496 004.7981 02.13160789193379
